{
  "type": "FeatureCollection",
  "features": [
    {
      "type": "Feature",
      "properties": {
        "norad_id": 41866,
        "name": "GOES 16",
        "group": "weather",
        "lat": 0.02112897650656078,
        "lon": -107.98439097878358,
        "alt_km": 35772.84860355036,
        "timestamp": "2025-12-26T17:24:54.360461+00:00",
        "meta_object_name": "GOES 16",
        "meta_object_id": "2016-071A",
        "meta_epoch": "2025-12-26T01:40:38.552160",
        "meta_mean_motion": 1.0027174,
        "meta_eccentricity": 0.00032387,
        "meta_inclination": 0.0783,
        "meta_ra_of_asc_node": 101.035,
        "meta_arg_of_pericenter": 165.7681,
        "meta_mean_anomaly": 108.5169,
        "meta_ephemeris_type": 0,
        "meta_classification_type": "U",
        "meta_norad_cat_id": 41866,
        "meta_element_set_no": 999,
        "meta_rev_at_epoch": 3336,
        "meta_bstar": 0,
        "meta_mean_motion_dot": -6.9e-07,
        "meta_mean_motion_ddot": 0,
        "tle_line1": "1 41866U 16071A   25360.06989065 -.00000069  00000+0  00000+0 0  9993",
        "tle_line2": "2 41866   0.0783 101.0350 0003238 165.7681 108.5169  1.00271740 33362"
      },
      "geometry": {
        "type": "Point",
        "coordinates": [
          -107.98439097878358,
          0.02112897650656078
        ]
      }
    },
    {
      "type": "Feature",
      "properties": {
        "norad_id": 41882,
        "name": "FENGYUN 4A",
        "group": "weather",
        "lat": 1.1753564861241688,
        "lon": 120.18056630022389,
        "alt_km": 35793.70479408151,
        "timestamp": "2025-12-26T17:24:54.360474+00:00",
        "meta_object_name": "FENGYUN 4A",
        "meta_object_id": "2016-077A",
        "meta_epoch": "2025-12-26T02:19:21.450720",
        "meta_mean_motion": 1.00262566,
        "meta_eccentricity": 0.00045276,
        "meta_inclination": 1.8809,
        "meta_ra_of_asc_node": 82.26,
        "meta_arg_of_pericenter": 143.2043,
        "meta_mean_anomaly": 27.8016,
        "meta_ephemeris_type": 0,
        "meta_classification_type": "U",
        "meta_norad_cat_id": 41882,
        "meta_element_set_no": 999,
        "meta_rev_at_epoch": 3319,
        "meta_bstar": 0,
        "meta_mean_motion_dot": -3.36e-06,
        "meta_mean_motion_ddot": 0,
        "tle_line1": "1 41882U 16077A   25360.09677605 -.00000336  00000+0  00000+0 0  9991",
        "tle_line2": "2 41882   1.8809  82.2600 0004527 143.2043  27.8016  1.00262566 33192"
      },
      "geometry": {
        "type": "Point",
        "coordinates": [
          120.18056630022389,
          1.1753564861241688
        ]
      }
    },
    {
      "type": "Feature",
      "properties": {
        "norad_id": 41884,
        "name": "CYGFM05",
        "group": "weather",
        "lat": -26.49498513316437,
        "lon": -89.7782997623642,
        "alt_km": 416.6004533741716,
        "timestamp": "2025-12-26T17:24:54.360485+00:00",
        "meta_object_name": "CYGFM05",
        "meta_object_id": "2016-078A",
        "meta_epoch": "2025-12-26T05:15:13.645152",
        "meta_mean_motion": 15.48146899,
        "meta_eccentricity": 0.00104477,
        "meta_inclination": 34.9602,
        "meta_ra_of_asc_node": 319.0509,
        "meta_arg_of_pericenter": 298.9707,
        "meta_mean_anomaly": 60.9967,
        "meta_ephemeris_type": 0,
        "meta_classification_type": "U",
        "meta_norad_cat_id": 41884,
        "meta_element_set_no": 999,
        "meta_rev_at_epoch": 50185,
        "meta_bstar": 0.00037568253,
        "meta_mean_motion_dot": 0.00020392,
        "meta_mean_motion_ddot": 0,
        "tle_line1": "1 41884U 16078A   25360.21890793  .00020392  00000+0  37568-3 0  9999",
        "tle_line2": "2 41884  34.9602 319.0509 0010447 298.9707  60.9967 15.48146899501857"
      },
      "geometry": {
        "type": "Point",
        "coordinates": [
          -89.7782997623642,
          -26.49498513316437
        ]
      }
    },
    {
      "type": "Feature",
      "properties": {
        "norad_id": 41885,
        "name": "CYGFM04",
        "group": "weather",
        "lat": -17.781013570827994,
        "lon": -97.24527807435376,
        "alt_km": 408.6805172014183,
        "timestamp": "2025-12-26T17:24:54.360496+00:00",
        "meta_object_name": "CYGFM04",
        "meta_object_id": "2016-078B",
        "meta_epoch": "2025-12-26T05:11:40.920576",
        "meta_mean_motion": 15.50945052,
        "meta_eccentricity": 0.00089688,
        "meta_inclination": 34.9347,
        "meta_ra_of_asc_node": 293.4499,
        "meta_arg_of_pericenter": 323.6494,
        "meta_mean_anomaly": 36.3618,
        "meta_ephemeris_type": 0,
        "meta_classification_type": "U",
        "meta_norad_cat_id": 41885,
        "meta_element_set_no": 999,
        "meta_rev_at_epoch": 50203,
        "meta_bstar": 0.00038816958,
        "meta_mean_motion_dot": 0.00023266,
        "meta_mean_motion_ddot": 0,
        "tle_line1": "1 41885U 16078B   25360.21644584  .00023266  00000+0  38817-3 0  9996",
        "tle_line2": "2 41885  34.9347 293.4499 0008968 323.6494  36.3618 15.50945052502033"
      },
      "geometry": {
        "type": "Point",
        "coordinates": [
          -97.24527807435376,
          -17.781013570827994
        ]
      }
    },
    {
      "type": "Feature",
      "properties": {
        "norad_id": 41886,
        "name": "CYGFM02",
        "group": "weather",
        "lat": 26.69229754041897,
        "lon": -25.692087162902606,
        "alt_km": 403.54299803414324,
        "timestamp": "2025-12-26T17:24:54.360507+00:00",
        "meta_object_name": "CYGFM02",
        "meta_object_id": "2016-078C",
        "meta_epoch": "2025-12-26T04:50:47.956416",
        "meta_mean_motion": 15.52365862,
        "meta_eccentricity": 0.00105906,
        "meta_inclination": 34.9437,
        "meta_ra_of_asc_node": 291.6942,
        "meta_arg_of_pericenter": 325.3429,
        "meta_mean_anomaly": 34.6603,
        "meta_ephemeris_type": 0,
        "meta_classification_type": "U",
        "meta_norad_cat_id": 41886,
        "meta_element_set_no": 999,
        "meta_rev_at_epoch": 50216,
        "meta_bstar": 0.00040372119,
        "meta_mean_motion_dot": 0.00025494,
        "meta_mean_motion_ddot": 0,
        "tle_line1": "1 41886U 16078C   25360.20194394  .00025494  00000+0  40372-3 0  9999",
        "tle_line2": "2 41886  34.9437 291.6942 0010590 325.3429  34.6603 15.52365862502164"
      },
      "geometry": {
        "type": "Point",
        "coordinates": [
          -25.692087162902606,
          26.69229754041897
        ]
      }
    },
    {
      "type": "Feature",
      "properties": {
        "norad_id": 41887,
        "name": "CYGFM01",
        "group": "weather",
        "lat": 12.862874584012468,
        "lon": -22.922865787356148,
        "alt_km": 417.0132389026476,
        "timestamp": "2025-12-26T17:24:54.360518+00:00",
        "meta_object_name": "CYGFM01",
        "meta_object_id": "2016-078D",
        "meta_epoch": "2025-12-26T06:29:15.663552",
        "meta_mean_motion": 15.48744143,
        "meta_eccentricity": 0.00102429,
        "meta_inclination": 34.9436,
        "meta_ra_of_asc_node": 320.968,
        "meta_arg_of_pericenter": 291.8532,
        "meta_mean_anomaly": 68.11,
        "meta_ephemeris_type": 0,
        "meta_classification_type": "U",
        "meta_norad_cat_id": 41887,
        "meta_element_set_no": 999,
        "meta_rev_at_epoch": 50180,
        "meta_bstar": 0.00037968517,
        "meta_mean_motion_dot": 0.00021048,
        "meta_mean_motion_ddot": 0,
        "tle_line1": "1 41887U 16078D   25360.27032018  .00021048  00000+0  37969-3 0  9990",
        "tle_line2": "2 41887  34.9436 320.9680 0010242 291.8532  68.1100 15.48744143501807"
      },
      "geometry": {
        "type": "Point",
        "coordinates": [
          -22.922865787356148,
          12.862874584012468
        ]
      }
    },
    {
      "type": "Feature",
      "properties": {
        "norad_id": 41888,
        "name": "CYGFM08",
        "group": "weather",
        "lat": 24.693972912734967,
        "lon": 79.63040864593133,
        "alt_km": 419.55312050236626,
        "timestamp": "2025-12-26T17:24:54.360529+00:00",
        "meta_object_name": "CYGFM08",
        "meta_object_id": "2016-078E",
        "meta_epoch": "2025-12-26T04:28:38.500608",
        "meta_mean_motion": 15.4998199,
        "meta_eccentricity": 0.00113412,
        "meta_inclination": 34.946,
        "meta_ra_of_asc_node": 304.349,
        "meta_arg_of_pericenter": 314.88,
        "meta_mean_anomaly": 45.1001,
        "meta_ephemeris_type": 0,
        "meta_classification_type": "U",
        "meta_norad_cat_id": 41888,
        "meta_element_set_no": 999,
        "meta_rev_at_epoch": 50202,
        "meta_bstar": 0.00037787487,
        "meta_mean_motion_dot": 0.00021899,
        "meta_mean_motion_ddot": 0,
        "tle_line1": "1 41888U 16078E   25360.18655672  .00021899  00000+0  37787-3 0  9990",
        "tle_line2": "2 41888  34.9460 304.3490 0011341 314.8800  45.1001 15.49981990502029"
      },
      "geometry": {
        "type": "Point",
        "coordinates": [
          79.63040864593133,
          24.693972912734967
        ]
      }
    }
  ]
}